COMMENT,ORIGINATOR,NORAD_CAT_ID,OBJECT_NAME,OBJECT_TYPE,CLASSIFICATION_TYPE,INTLDES,EPOCH,EPOCH_MICROSECONDS,MEAN_MOTION,ECCENTRICITY,INCLINATION,RA_OF_ASC_NODE,ARG_OF_PERICENTER,MEAN_ANOMALY,EPHEMERIS_TYPE,ELEMENT_SET_NO,REV_AT_EPOCH,BSTAR,MEAN_MOTION_DOT,MEAN_MOTION_DDOT,FILE,TLE_LINE0,TLE_LINE1,TLE_LINE2,OBJECT_ID,OBJECT_NUMBER,SEMIMAJOR_AXIS,PERIOD,APOGEE,PERIGEE
"GENERATED VIA SPACETRACK.ORG API","JSPOC","20805","SL-8 R/B","ROCKET BODY","U","90083B","2016-01-09 18:51:05","212800","13.75791067","0.0031727","82.9377","90.2746","60.0782","57.8039","0","999","27102","5.4243e-05","6.8e-07","0","1978726","0 SL-8 R/B","1 20805U 90083B   16009.78547700 +.00000068 +00000-0 +54243-4 0  9995","2 20805 082.9377 090.2746 0031727 060.0782 057.8039 13.75791067271024","1990-083B","20805","7356.990","104.667","1002.196","955.513"
"GENERATED VIA SPACETRACK.ORG API","JSPOC","39152","TURKSAT 3U","PAYLOAD","U","13018C","2016-01-09 18:51:22","204224","14.79730476","0.0015957","97.9782","95.4983","303.9371","56.0323","0","999","14600","9.4828e-05","6.61e-06","0","1978317","0 TURKSAT 3U","1 39152U 13018C   16009.78567366  .00000661  00000-0  94828-4 0  9995","2 39152  97.9782  95.4983 0015957 303.9371  56.0323 14.79730476146003","2013-018C","39152","7008.312","97.315","641.360","618.993"
"GENERATED VIA SPACETRACK.ORG API","JSPOC","4793","NOAA 1","PAYLOAD","U","70106A","2016-01-09 18:51:26","754048","12.53975441","0.0032189","101.8803","69.7717","185.6729","283.1287","0","999","6294","8.7638e-05","-3.2e-07","0","1978726","0 NOAA 1","1  4793U 70106A   16009.78572632 -.00000032 +00000-0 +87638-4 0  9995","2  4793 101.8803 069.7717 0032189 185.6729 283.1287 12.53975441062947","1970-106A","4793","7826.047","114.834","1473.103","1422.721"
"GENERATED VIA SPACETRACK.ORG API","JSPOC","37393","YAHSAT 1A","PAYLOAD","U","11016B","2016-01-09 18:51:32","393376","1.00269009","0.0002534","0.0184","34.3816","251.379","158.3746","0","999","1736","0","1.06e-06","0","1978198","0 YAHSAT 1A","1 37393U 11016B   16009.78579159  .00000106  00000-0  00000+0 0  9997","2 37393   0.0184  34.3816 0002534 251.3790 158.3746  1.00269009 17364","2011-016B","37393","42165.510","1436.136","35798.059","35776.690"
"GENERATED VIA SPACETRACK.ORG API","JSPOC","25721","ABRIXAS","PAYLOAD","U","99022A","2016-01-09 18:51:32","45184","15.57838523","0.0009829","48.4487","230.9894","172.8966","187.2122","0","999","92771","0.00018631","0.00013754","0","1978204","0 ABRIXAS","1 25721U 99022A   16009.78578756  .00013754  00000-0  18631-3 0  9990","2 25721  48.4487 230.9894 0009829 172.8966 187.2122 15.57838523927712","1999-022A","25721","6772.050","92.435","400.572","387.259"
"GENERATED VIA SPACETRACK.ORG API","JSPOC","39034","SKYNET 5D","PAYLOAD","U","12075A","2016-01-09 18:51:32","362272","1.00270741","0.0003525","0.0683","357.2936","284.9296","162.1424","0","999","1130","0","1.05e-06","0","1978248","0 SKYNET 5D","1 39034U 12075A   16009.78579123  .00000105  00000-0  00000+0 0  9997","2 39034   0.0683 357.2936 0003525 284.9296 162.1424  1.00270741 11305","2012-075A","39034","42165.024","1436.111","35801.752","35772.026"
"GENERATED VIA SPACETRACK.ORG API","JSPOC","32500","WINDS (KIZUNA)","PAYLOAD","U","08007A","2016-01-09 18:51:36","408384","1.00273652","0.000268","0.0832","265.2705","35.9819","233.39","0","999","2881","0","-2.53e-06","0","1978454","0 WINDS (KIZUNA)","1 32500U 08007A   16009.78583806 -.00000253  00000-0  00000+0 0  9996","2 32500   0.0832 265.2705 0002680  35.9819 233.3900  1.00273652 28818","2008-007A","32500","42164.208","1436.070","35797.373","35774.773"
"GENERATED VIA SPACETRACK.ORG API","JSPOC","32500","WINDS (KIZUNA)","PAYLOAD","U","08007A","2016-01-09 18:51:36","408384","1.00273652","0.000268","0.0832","265.2705","35.9819","233.39","0","999","2868","0","-2.53e-06","0","1978726","0 WINDS (KIZUNA)","1 32500U 08007A   16009.78583806 -.00000253 +00000-0 +00000-0 0  9997","2 32500 000.0832 265.2705 0002680 035.9819 233.3900 01.00273652028683","2008-007A","32500","42164.208","1436.070","35797.373","35774.773"
"GENERATED VIA SPACETRACK.ORG API","JSPOC","6265","COSMOS 530","PAYLOAD","U","72087C","2016-01-09 18:52:02","47584","12.65612103","0.0086671","74.0357","112.6144","162.2935","10.9508","0","999","99553","-3.4631e-05","-2.3e-07","0","1978239","0 COSMOS 530","1 06265U 72087C   16009.78613481 -.00000023  00000-0 -34631-4 0  9995","2 06265  74.0357 112.6144 0086671 162.2935  10.9508 12.65612103995533","1972-087C","6265","7778.002","113.778","1467.280","1332.455"
"GENERATED VIA SPACETRACK.ORG API","JSPOC","25577","IRIDIUM 20","PAYLOAD","U","98074A","2016-01-09 18:52:07","413888","14.34219158","0.000204","86.3985","114.6486","98.537","261.6057","0","999","7866","8.2904e-05","2.52e-06","0","1978726","0 IRIDIUM 20","1 25577U 98074A   16009.78619692 +.00000252 +00000-0 +82904-4 0  9994","2 25577 086.3985 114.6486 0002040 098.5370 261.6057 14.34219158078667","1998-074A","25577","7155.799","100.403","779.124","776.204"
"GENERATED VIA SPACETRACK.ORG API","JSPOC","22185","COSMOS 2214","PAYLOAD","U","92068D","2016-01-09 18:52:12","495936","12.61505331","0.0008405","82.5917","257.9133","131.512","293.4294","0","999","6906","0.00012682","3.3e-07","0","1978726","0 COSMOS 2214","1 22185U 92068D   16009.78625574 +.00000033 +00000-0 +12682-3 0  9991","2 22185 082.5917 257.9133 0008405 131.5120 293.4294 12.61505331069063","1992-068D","22185","7794.874","114.149","1423.290","1410.187"
"GENERATED VIA SPACETRACK.ORG API","JSPOC","36799","TISAT 1","PAYLOAD","U","10035E","2016-01-09 18:52:22","31904","14.89340827","0.0011667","98.0222","117.7757","246.8434","113.1553","0","999","29769","0.00015272","1.392e-05","0","1978225","0 TISAT 1","1 36799U 10035E   16009.78636611  .00001392  00000-0  15272-3 0  9992","2 36799  98.0222 117.7757 0011667 246.8434 113.1553 14.89340827297694","2010-035E","36799","6978.130","96.687","608.137","591.854"
"GENERATED VIA SPACETRACK.ORG API","JSPOC","18937","COSMOS 1924","PAYLOAD","U","88016A","2016-01-09 18:52:23","896416","12.44572105","0.0035297","74.0061","110.446","298.2608","238.2981","0","999","26446","2.0206e-05","-1.3e-07","0","1978726","0 COSMOS 1924","1 18937U 88016A   16009.78638769 -.00000013 +00000-0 +20206-4 0  9990","2 18937 074.0061 110.4460 0035297 298.2608 238.2981 12.44572105264461","1988-016A","18937","7865.417","115.702","1515.045","1459.520"
"GENERATED VIA SPACETRACK.ORG API","JSPOC","14452","METEOR 2-10","PAYLOAD","U","83109A","2016-01-09 18:52:27","562368","14.26380687","0.0091734","81.1616","245.602","102.0602","259.0876","0","999","67426","3.072e-05","9.1e-07","0","1978278","0 METEOR 2-10","1 14452U 83109A   16009.78643012  .00000091  00000-0  30720-4 0  9990","2 14452  81.1616 245.6020 0091734 102.0602 259.0876 14.26380687674262","1983-109A","14452","7181.991","100.954","869.739","737.973"
"GENERATED VIA SPACETRACK.ORG API","JSPOC","21610","ARIANE 40 R/B","ROCKET BODY","U","91050F","2016-01-09 18:52:27","176160","14.40690473","0.0004185","98.679","54.9389","76.0329","55.8871","0","999","28432","3.6371e-05","7e-07","0","1978726","0 ARIANE 40 R/B","1 21610U 91050F   16009.78642565 +.00000070 +00000-0 +36371-4 0  9995","2 21610 098.6790 054.9389 0004185 076.0329 055.8871 14.40690473284325","1991-050F","21610","7134.355","99.952","759.205","753.234"
"GENERATED VIA SPACETRACK.ORG API","JSPOC","16611","COSMOS 1733","PAYLOAD","U","86018A","2016-01-09 18:52:31","612800","15.14976607","0.0013293","82.4894","197.3513","4.8654","355.2704","0","999","62955","9.4155e-05","1.79e-05","0","1978272","0 COSMOS 1733","1 16611U 86018A   16009.78647700  .00001790  00000-0  94155-4 0  9998","2 16611  82.4894 197.3513 0013293   4.8654 355.2704 15.14976607629555","1986-018A","16611","6899.186","95.050","530.222","511.880"
"GENERATED VIA SPACETRACK.ORG API","JSPOC","22027","INSAT 2A","PAYLOAD","U","92041A","2016-01-09 18:52:33","377088","1.00238319","0.0009436","14.1506","26.0131","197.7806","335.0902","0","999","8585","0","-7.3e-07","0","1978726","0 INSAT 2A","1 22027U 92041A   16009.78649742 -.00000073 +00000-0 +00000-0 0  9993","2 22027 014.1506 026.0131 0009436 197.7806 335.0902 01.00238319085850","1992-041A","22027","42174.116","1436.576","35835.776","35756.185"
"GENERATED VIA SPACETRACK.ORG API","JSPOC","41106","FREGAT R/B","ROCKET BODY","U","15074B","2016-01-09 18:52:46","286976","1.02895522","0.0181835","0.4539","273.3286","72.012","14.1268","0","999","29","0","-3.1e-07","0","1978606","0 FREGAT R/B","1 41106U 15074B   16009.78664684 -.00000031  00000-0  00000+0 0  9998","2 41106   0.4539 273.3286 0181835  72.0120  14.1268  1.02895522   291","2015-074B","41106","41444.877","1399.477","35820.355","34313.129"
"GENERATED VIA SPACETRACK.ORG API","JSPOC","23445","COSMOS 2303","PAYLOAD","U","94086E","2016-01-09 18:52:56","535744","12.60472623","0.0010658","82.5739","251.0523","171.8695","258.2794","0","999","96778","-1.0233e-05","9e-08","0","1978726","0 COSMOS 2303","1 23445U 94086E   16009.78676546 +.00000009 +00000-0 -10233-4 0  9993","2 23445 082.5739 251.0523 0010658 171.8695 258.2794 12.60472623967786","1994-086E","23445","7799.131","114.242","1429.308","1412.683"
"GENERATED VIA SPACETRACK.ORG API","JSPOC","22184","COSMOS 2213","PAYLOAD","U","92068C","2016-01-09 18:53:03","568704","12.62525468","0.000285","82.599","253.1078","115.1302","311.4194","0","999","6998","0.00015359","3.8e-07","0","1978726","0 COSMOS 2213","1 22184U 92068C   16009.78684686 +.00000038 +00000-0 +15359-3 0  9998","2 22184 082.5990 253.1078 0002850 115.1302 311.4194 12.62525468069982","1992-068C","22184","7790.674","114.057","1414.760","1410.319"
